STARLINK-1540           
1 46051U 20055AA  24011.43274242 -.00002010  00000+0 -11613-3 0  9993
2 46051  53.0539  55.2421 0001593  81.8806 278.2363 15.06378994190239
STARLINK-1541           
1 46052U 20055AB  24011.35164900  .00001612  00000+0  12706-3 0  9993
2 46052  53.0536  55.6056 0001377  82.3529 277.7616 15.06398307190182
STARLINK-1543           
1 46053U 20055AC  24011.42168163 -.00001264  00000+0 -65989-4 0  9994
2 46053  53.0528  55.2872 0001294  76.4602 283.6531 15.06393639190220
STARLINK-1548           
1 46054U 20055AD  24011.49539726  .00019157  00000+0  13019-2 0  9992
2 46054  53.0537  54.9612 0001485  91.0854 269.0305 15.06387706190239
STARLINK-1554           
1 46055U 20055AE  24011.28161332 -.00000071  00000+0  14155-4 0  9994
2 46055  53.0553  55.9183 0001660 109.1194 250.9975 15.06395514190200
STARLINK-1564           
1 46058U 20055AH  24011.50919567  .00003274  00000+0  23855-3 0  9996
2 46058  53.0544  54.8507 0001483  88.5575 271.5583 15.06401987190236
STARLINK-1570           
1 46059U 20055AJ  24011.52120196  .00005406  00000+0  38148-3 0  9991
2 46059  53.0547  54.8487 0001668  69.5023 290.6145 15.06404162190198
STARLINK-1572           
1 46060U 20055AK  24011.38482050  .00006158  00000+0  43187-3 0  9991
2 46060  53.0539  55.4584 0001388  92.9303 267.1844 15.06403613190180
STARLINK-1573           
1 46061U 20055AL  24011.51383630  .00002685  00000+0  19907-3 0  9995
2 46061  53.0547  54.9176 0001486  87.8270 272.2889 15.06402610190234
STARLINK-1574           
1 46062U 20055AM  24011.41062072 -.00000969  00000+0 -46188-4 0  9996
2 46062  53.0550  55.3306 0001138  94.2345 265.8774 15.06394208190186
STARLINK-1577           
1 46063U 20055AN  24011.34060089  .00000112  00000+0  26393-4 0  9999
2 46063  53.0560  55.6583 0001418  96.0889 264.0261 15.06381345190205
STARLINK-1583           
1 46064U 20055AP  24011.44011597  .00002303  00000+0  17346-3 0  9992
2 46064  53.0540  55.2088 0001411  85.9394 274.1756 15.06396064190228
STARLINK-1525           
1 46066U 20055AR  24011.43827026  .00001471  00000+0  11762-3 0  9996
2 46066  53.0536  35.2160 0001426  96.3110 263.8041 15.06395476190499
STARLINK-1529           
1 46067U 20055AS  24011.35903403  .00003632  00000+0  34858-4 0  9995
2 46067  53.0564   3.2703 0000834  73.4146 286.6963 15.69681999190949
STARLINK-1532           
1 46068U 20055AT  24011.34984659  .00001535  00000+0  12196-3 0  9997
2 46068  53.0549  35.9137 0001518 107.9503 252.1651 15.06394515190483
STARLINK-1533           
1 46069U 20055AU  24011.33506334  .00000600  00000+0  59168-4 0  9990
2 46069  53.0534  35.6774 0001449  98.6312 261.4841 15.06394062190491
STARLINK-1536           
1 46070U 20055AV  24011.34886099  .00000948  00000+0  82508-4 0  9991
2 46070  53.0549  35.5995 0001461 112.0475 248.0669 15.06396178190497
STARLINK-1538           
1 46071U 20055AW  24011.43458697 -.00000157  00000+0  83811-5 0  9993
2 46071  53.0536  35.2303 0001481  96.1031 264.0126 15.06389559190509
STARLINK-1539           
1 46072U 20055AX  24011.45944632  .00000972  00000+0  84154-4 0  9999
2 46072  53.0534  35.1199 0001466  92.0103 268.1054 15.06396366189965
STARLINK-1542           
1 46073U 20055AY  24011.34244225  .00000535  00000+0  54802-4 0  9991
2 46073  53.0565  35.6511 0001439  80.2807 279.8344 15.06389432190489
STARLINK-1549           
1 46074U 20055AZ  24011.46038454  .00002165  00000+0  16417-3 0  9990
2 46074  53.0539  35.1138 0001425 112.1658 247.9482 15.06398202189971
STARLINK-1551           
1 46075U 20055BA  24011.28715077  .00000713  00000+0  66758-4 0  9995
2 46075  53.0550  35.8968 0001372  84.7592 275.3554 15.06394520190476
STARLINK-1552           
1 46076U 20055BB  24011.37929724 -.00001098  00000+0 -54841-4 0  9991
2 46076  53.0538  35.4833 0001450  88.7796 271.3360 15.06390053190475
STARLINK-1559           
1 46077U 20055BC  24011.36086384  .00001135  00000+0  95087-4 0  9994
2 46077  53.0530  35.5587 0001263  88.0724 272.0410 15.06397907190447
STARLINK-1563           
1 46078U 20055BD  24011.33875163  .00002310  00000+0  17396-3 0  9995
2 46078  53.0556  35.6633 0001555  97.8786 262.2379 15.06398923190454
STARLINK-1566           
1 46079U 20055BE  24011.33138140  .00001171  00000+0  97498-4 0  9999
2 46079  53.0549  35.6971 0001724  74.4757 285.6422 15.06393225190480
STARLINK-1568           
1 46080U 20055BF  24011.50590383  .00007400  00000+0  53761-3 0  9996
2 46080  53.0547  35.0818 0001403  90.0445 270.0704 15.04793613190480
STARLINK-1571           
1 46081U 20055BG  24011.45670880  .00001168  00000+0  97348-4 0  9997
2 46081  53.0559  35.1306 0001436  88.1395 271.9758 15.06388819189965
STARLINK-1578           
1 46082U 20055BH  24011.34612101 -.00000060  00000+0  14841-4 0  9996
2 46082  53.0548  35.6337 0001500  99.1156 261.0003 15.06397969190480
STARLINK-1579           
1 46083U 20055BJ  24011.38296482 -.00004987  00000+0 -31616-3 0  9992
2 46083  53.0538  35.4633 0001295 103.6295 256.4838 15.06394500190485
STARLINK-1585           
1 46117U 20057A   24011.61521291  .00003176  00000+0  23208-3 0  9992
2 46117  53.0539 234.4214 0001355  93.3066 266.8078 15.06390634187568
STARLINK-1588           
1 46118U 20057B   24011.82345595  .00002757  00000+0  20395-3 0  9995
2 46118  53.0532 253.4892 0001699  93.4894 266.6290 15.06397726187974
STARLINK-1593           
1 46119U 20057C   24011.69758772  .00000966  00000+0  87217-4 0  9993
2 46119  53.0543 254.2429 0001710  98.4962 261.6220 15.04762033187958
STARLINK-1601           
1 46120U 20057D   24011.86400206  .00001353  00000+0  10969-3 0  9990
2 46120  53.0526 253.3085 0001376  98.4073 261.7072 15.06394398187986
STARLINK-1602           
1 46121U 20057E   24011.83267005 -.00000349  00000+0 -45510-5 0  9994
2 46121  53.0544 233.4496 0001700  98.4453 261.6729 15.06398320188264
STARLINK-1604           
1 46122U 20057F   24011.77553396  .00000556  00000+0  56187-4 0  9998
2 46122  53.0522 213.7030 0001421  91.4304 268.6848 15.06398716188532
STARLINK-1605           
1 46123U 20057G   24011.82713408  .00001290  00000+0  10546-3 0  9991
2 46123  53.0531 213.4728 0001374  91.0286 269.0860 15.06398503188539
STARLINK-1614           
1 46124U 20057H   24011.76816205  .00000356  00000+0  42816-4 0  9992
2 46124  53.0538 213.7375 0001393  94.9765 265.1383 15.06400322188533
STARLINK-1618           
1 46125U 20057J   24011.81608350  .00001538  00000+0  12213-3 0  9999
2 46125  53.0539 253.5203 0001720 118.7515 241.3646 15.06400336187979
STARLINK-1619           
1 46126U 20057K   24010.94238171  .00013334  00000+0  89264-3 0  9990
2 46126  53.0534 256.9026 0001687  78.2874 281.8304 15.07213294187195
STARLINK-1621           
1 46127U 20057L   24011.84741081 -.00000161  00000+0  81076-5 0  9990
2 46127  53.0525 233.3751 0001657 110.5097 249.6070 15.06395208188260
STARLINK-1622           
1 46128U 20057M   24011.80872511  .00001584  00000+0  12530-3 0  9996
2 46128  53.0526 213.5568 0001285  86.2873 273.8263 15.06375079188533
STARLINK-1623           
1 46129U 20057N   24011.51751671  .00001351  00000+0  10956-3 0  9990
2 46129  53.0532 214.8670 0001635  96.5001 263.6174 15.06399283187838
STARLINK-1624           
1 46130U 20057P   24011.81608171  .00000731  00000+0  67974-4 0  9995
2 46130  53.0538 213.5223 0001426  92.4815 267.6338 15.06396451188530
STARLINK-1625           
1 46131U 20057Q   24011.82898062  .00001931  00000+0  14851-3 0  9995
2 46131  53.0525 233.4662 0001427  83.6051 276.5101 15.06402755188251
STARLINK-1630           
1 46132U 20057R   24011.80133831 -.00000371  00000+0 -59885-5 0  9997
2 46132  53.0538 253.5845 0001411 119.2570 240.8560 15.06398146187976
STARLINK-1637           
1 46133U 20057S   24011.80133099 -.00001375  00000+0 -73402-4 0  9999
2 46133  53.0523 213.5802 0001611 104.5490 255.5677 15.06395412188538
STARLINK-1639           
1 46135U 20057U   24011.81976900 -.00000178  00000+0  69757-5 0  9996
2 46135  53.0520 213.5059 0001877 149.7206 210.3892 15.06388997188539
STARLINK-1643           
1 46136U 20057V   24011.80595606 -.00000319  00000+0 -24905-5 0  9990
2 46136  53.0526 243.6085 0001525  80.6523 279.4638 15.06395051188111
STARLINK-1586           
1 46137U 20057W   24011.82161163  .00001853  00000+0  14325-3 0  9995
2 46137  53.0523 233.4963 0001445  77.8634 282.2517 15.06399056188266
STARLINK-1590           
1 46138U 20057X   24011.81540240  .00012589  00000+0  84830-3 0  9998
2 46138  53.0536 253.4809 0001733 120.0664 240.0497 15.07018953187977
STARLINK-1594           
1 46140U 20057Z   24011.77922362  .00000347  00000+0  42194-4 0  9992
2 46140  53.0533 213.6872 0001470  85.4073 274.7083 15.06396295188536
STARLINK-1596           
1 46141U 20057AA  24011.82346255 -.00000332  00000+0 -34005-5 0  9999
2 46141  53.0529 213.4873 0001565  98.2916 261.8251 15.06374344188539
STARLINK-1597           
1 46142U 20057AB  24011.84188732  .00000689  00000+0  65157-4 0  9990
2 46142  53.0530 253.4044 0001612 108.1446 251.9718 15.06392169187978
STARLINK-1606           
1 46144U 20057AD  24011.80687168  .00000640  00000+0  61866-4 0  9995
2 46144  53.0529 233.5624 0001540  92.3381 267.7785 15.06396275188267
STARLINK-1608           
1 46146U 20057AF  24011.85296254  .00002933  00000+0  21576-3 0  9994
2 46146  53.0531 253.3560 0001432  84.8524 275.2628 15.06387535187983
STARLINK-1611           
1 46147U 20057AG  24011.83451401  .00001517  00000+0  12072-3 0  9998
2 46147  53.0526 253.4311 0001702 100.9175 259.2005 15.06396950187976
STARLINK-1616           
1 46148U 20057AH  24011.84003799 -.00001109  00000+0 -55539-4 0  9998
2 46148  53.0527 233.4042 0001656 114.1922 245.9240 15.06394498188263
STARLINK-1620           
1 46149U 20057AJ  24011.78749860  .00001067  00000+0  90525-4 0  9993
2 46149  53.0536 233.6375 0001761  78.7958 281.3229 15.06392704188254
